NORAD_CAT_ID,OBJECT_NAME,OBJECT_TYPE,EPOCH,MEAN_MOTION,ECCENTRICITY,INCLINATION,RA_OF_ASC_NODE,ARG_OF_PERICENTER,MEAN_ANOMALY,BSTAR,MEAN_MOTION_DOT,MEAN_MOTION_DDOT,TLE_LINE0,TLE_LINE1,TLE_LINE2,SEMIMAJOR_AXIS,PERIOD,APOGEE,PERIGEE,DECAYED
51752.0,STARLINK-3511,PAYLOAD,2024-07-26 00:49:39,15.08837029,0.0001092,53.2164,85.0977,93.1057,267.006,4.7773e-05,4.73e-06,0.0,0 STARLINK-3511,1 51752U 22016AQ  24208.03448176  .00000473  00000-0  47773-4 0  9996,2 51752  53.2164  85.0977 0001092  93.1057 267.0060 15.08837029135504,6917.889,95.438,540.51,538.999,0.0
51752.0,STARLINK-3511,PAYLOAD,2024-07-26 08:46:34,15.08839127,0.0001487,53.2174,83.6146,93.0081,267.1082,5.2362e-05,5.45e-06,0.0,0 STARLINK-3511,1 51752U 22016AQ  24208.36568098  .00000545  00000-0  52362-4 0  9998,2 51752  53.2174  83.6146 0001487  93.0081 267.1082 15.08839127134438,6917.883,95.438,540.777,538.719,0.0
51752.0,STARLINK-3511,PAYLOAD,2024-07-26 23:05:01,15.08856996,0.0001505,53.2162,80.9386,89.8846,270.2319,0.00010481,1.381e-05,0.0,0 STARLINK-3511,1 51752U 22016AQ  24208.96182639  .00001381  00000-0  10481-3 0  9991,2 51752  53.2162  80.9386 0001505  89.8846 270.2319 15.08856996135649,6917.828,95.436,540.735,538.652,0.0
51752.0,STARLINK-3511,PAYLOAD,2024-07-27 21:20:28,15.08823749,0.0001261,53.2173,76.774,89.2714,270.8423,-6.1713e-05,-1.269e-05,0.0,0 STARLINK-3511,1 51752U 22016AQ  24209.88921369 -.00001269  00000-0 -61713-4 0  9996,2 51752  53.2173  76.7740 0001261  89.2714 270.8423 15.08823749134668,6917.93,95.439,540.667,538.923,0.0
51752.0,STARLINK-3511,PAYLOAD,2024-07-27 22:55:51,15.0882474,0.0001247,53.2176,76.4767,89.5505,270.563,-5.8779e-05,-1.223e-05,0.0,0 STARLINK-3511,1 51752U 22016AQ  24209.95545328 -.00001223  00000-0 -58779-4 0  9999,2 51752  53.2176  76.4767 0001247  89.5505 270.5630 15.08824740135796,6917.927,95.439,540.655,538.929,0.0
51752.0,STARLINK-3511,PAYLOAD,2024-07-28 08:28:09,15.08832986,0.0001223,53.2174,74.6925,89.7995,270.3138,1.3252e-05,-7.7e-07,0.0,0 STARLINK-3511,1 51752U 22016AQ  24210.35288781 -.00000077  00000-0  13252-4 0  9994,2 51752  53.2174  74.6925 0001223  89.7995 270.3138 15.08832986135858,6917.902,95.438,540.613,538.921,0.0
51752.0,STARLINK-3511,PAYLOAD,2024-07-28 21:11:13,15.088367,0.0001484,53.2166,72.3168,69.4903,290.6249,0.00015976,2.255e-05,0.0,0 STARLINK-3511,1 51752U 22016AQ  24210.88279947  .00002255  00000-0  15976-3 0  9999,2 51752  53.2166  72.3168 0001484  69.4903 290.6249 15.08836700135931,6917.89,95.438,540.782,538.729,0.0
51752.0,STARLINK-3511,PAYLOAD,2024-07-28 22:46:36,15.0884316,0.0001519,53.2183,72.0161,82.6249,277.4915,0.00018762,2.7e-05,0.0,0 STARLINK-3511,1 51752U 22016AQ  24210.94903437  .00002700  00000-0  18762-3 0  9995,2 51752  53.2183  72.0161 0001519  82.6249 277.4915 15.08843160135941,6917.871,95.437,540.787,538.685,0.0
51752.0,STARLINK-3511,PAYLOAD,2024-07-29 14:40:28,15.08841985,0.0001494,53.2171,69.0468,71.8513,288.2641,9.477e-05,1.221e-05,0.0,0 STARLINK-3511,1 51752U 22016AQ  24211.61143993  .00001221  00000-0  94770-4 0  9994,2 51752  53.2171  69.0468 0001494  71.8513 288.2641 15.08841985134926,6917.874,95.437,540.773,538.706,0.0
51752.0,STARLINK-3511,PAYLOAD,2024-07-29 21:02:00,15.08842513,0.0001258,53.2167,67.8528,97.8965,262.217,0.00010621,1.403e-05,0.0,0 STARLINK-3511,1 51752U 22016AQ  24211.87639685  .00001403  00000-0  10621-3 0  9994,2 51752  53.2167  67.8528 0001258  97.8965 262.2170 15.08842513136087,6917.873,95.437,540.608,538.867,0.0
51752.0,STARLINK-3511,PAYLOAD,2024-07-30 20:52:47,15.0884365,0.0001302,53.2167,63.3937,83.2842,276.8298,8.9529e-07,-2.74e-06,0.0,0 STARLINK-3511,1 51752U 22016AQ  24212.86999954 -.00000274  00000-0  89529-6 0  9994,2 51752  53.2167  63.3937 0001302  83.2842 276.8298 15.08843650136237,6917.869,95.437,540.635,538.834,0.0
51752.0,STARLINK-3511,PAYLOAD,2024-07-31 14:22:03,15.08833771,0.0001292,53.2163,60.1225,85.2864,274.8276,-7.7889e-05,-1.527e-05,0.0,0 STARLINK-3511,1 51752U 22016AQ  24213.59864872 -.00001527  00000-0 -77889-4 0  9992,2 51752  53.2163  60.1225 0001292  85.2864 274.8276 15.08833771135227,6917.899,95.438,540.658,538.871,0.0
51752.0,STARLINK-3511,PAYLOAD,2024-07-31 20:43:35,15.08836975,0.000115,53.2164,58.9296,89.7868,270.3255,-1.7943e-05,-5.73e-06,0.0,0 STARLINK-3511,1 51752U 22016AQ  24213.86360445 -.00000573  00000-0 -17943-4 0  9994,2 51752  53.2164  58.9296 0001150  89.7868 270.3255 15.08836975136382,6917.89,95.438,540.55,538.959,0.0
51752.0,STARLINK-3511,PAYLOAD,2024-08-01 14:12:49,15.08833645,9.1e-05,53.2147,55.6554,63.657,296.4516,0.00011023,1.467e-05,0.0,0 STARLINK-3511,1 51752U 22016AQ  24214.59224218  .00001467  00000-0  11023-3 0  9995,2 51752  53.2147  55.6554 0000910  63.6570 296.4516 15.08833645135376,6917.9,95.438,540.394,539.135,0.0
51752.0,STARLINK-3511,PAYLOAD,2024-08-01 20:34:20,15.08931762,9.77e-05,53.2178,54.4727,118.6073,241.5017,-0.0009255,-0.00015024,0.0,0 STARLINK-3511,1 51752U 22016AQ  24214.85718545 -.00015024  00000-0 -92550-3 0  9995,2 51752  53.2178  54.4727 0000977 118.6073 241.5017 15.08931762136536,6917.6,95.432,540.141,538.789,0.0
51752.0,STARLINK-3511,PAYLOAD,2024-08-02 06:06:41,15.08832727,0.0001165,53.2166,52.6839,74.4593,285.6527,7.8462e-05,9.61e-06,0.0,0 STARLINK-3511,1 51752U 22016AQ  24215.25464614  .00000961  00000-0  78462-4 0  9994,2 51752  53.2166  52.6839 0001165  74.4593 285.6527 15.08832727136595,6917.903,95.438,540.574,538.962,0.0
51752.0,STARLINK-3511,PAYLOAD,2024-08-02 14:03:38,15.0882012,0.0001364,53.2173,51.1998,92.4215,267.6933,-7.5356e-05,-1.486e-05,0.0,0 STARLINK-3511,1 51752U 22016AQ  24215.58586277 -.00001486  00000-0 -75356-4 0  9994,2 51752  53.2173  51.1998 0001364  92.4215 267.6933 15.08820120135522,6917.941,95.439,540.75,538.863,0.0
51752.0,STARLINK-3511,PAYLOAD,2024-08-02 20:25:10,15.08828203,0.0001454,53.2183,50.0125,100.5913,259.5243,3.7717e-06,-2.28e-06,0.0,0 STARLINK-3511,1 51752U 22016AQ  24215.85081790 -.00000228  00000-0  37717-5 0  9996,2 51752  53.2183  50.0125 0001454 100.5913 259.5243 15.08828203136681,6917.916,95.438,540.787,538.776,0.0
51752.0,STARLINK-3511,PAYLOAD,2024-08-03 05:57:29,15.08835847,0.0001521,53.2188,48.2262,91.2771,268.8396,2.2696e-05,7.3e-07,0.0,0 STARLINK-3511,1 51752U 22016AQ  24216.24825508  .00000073  00000-0  22696-4 0  9999,2 51752  53.2188  48.2262 0001521  91.2771 268.8396 15.08835847136741,6917.893,95.438,540.81,538.706,0.0
51752.0,STARLINK-3511,PAYLOAD,2024-08-03 20:15:56,15.08852034,0.0001383,53.2183,45.5494,88.0672,272.0479,6.6956e-05,7.78e-06,0.0,0 STARLINK-3511,1 51752U 22016AQ  24216.84440483  .00000778  00000-0  66956-4 0  9999,2 51752  53.2183  45.5494 0001383  88.0672 272.0479 15.08852034136839,6917.844,95.437,540.665,538.752,0.0
51752.0,STARLINK-3511,PAYLOAD,2024-08-04 12:09:48,15.08839582,0.0001542,53.2171,42.5779,81.8828,278.2339,0.00029997,4.489e-05,0.0,0 STARLINK-3511,1 51752U 22016AQ  24217.50681356  .00004489  00000-0  29997-3 0  9995,2 51752  53.2171  42.5779 0001542  81.8828 278.2339 15.08839582136937,6917.882,95.438,540.813,538.68,0.0
51752.0,STARLINK-3511,PAYLOAD,2024-08-04 20:06:43,15.08861024,0.0001386,53.2168,41.0881,86.2038,273.9113,0.00046276,7.089e-05,0.0,0 STARLINK-3511,1 51752U 22016AQ  24217.83800193  .00007089  00000-0  46276-3 0  9991,2 51752  53.2168  41.0881 0001386  86.2038 273.9113 15.08861024136982,6917.816,95.436,540.64,538.722,0.0
51752.0,STARLINK-3511,PAYLOAD,2024-08-05 05:39:02,15.08847723,0.0001345,53.2169,39.3042,93.2927,266.8219,0.00018232,2.615e-05,0.0,0 STARLINK-3511,1 51752U 22016AQ  24218.23544659  .00002615  00000-0  18232-3 0  9999,2 51752  53.2169  39.3042 0001345  93.2927 266.8219 15.08847723137048,6917.857,95.437,540.652,538.791,0.0
51752.0,STARLINK-3511,PAYLOAD,2024-08-05 18:22:07,15.08841959,0.0001555,53.2177,36.9229,104.4835,255.6329,-7.9019e-05,-1.545e-05,0.0,0 STARLINK-3511,1 51752U 22016AQ  24218.76536866 -.00001545  00000-0 -79019-4 0  9992,2 51752  53.2177  36.9229 0001555 104.4835 255.6329 15.08841959136001,6917.874,95.437,540.815,538.664,0.0
51752.0,STARLINK-3511,PAYLOAD,2024-08-05 18:22:08,15.08837286,0.000149,53.2176,36.9249,98.521,261.5951,-4.2537e-05,-9.65e-06,0.0,0 STARLINK-3511,1 51752U 22016AQ  24218.76537241 -.00000965  00000-0 -42537-4 0  9990,2 51752  53.2176  36.9249 0001490  98.5210 261.5951 15.08837286137129,6917.889,95.438,540.784,538.723,0.0
51752.0,STARLINK-3511,PAYLOAD,2024-08-06 05:29:49,15.08840609,0.0001578,53.2178,34.8417,105.5617,254.555,-3.9625e-05,-9.19e-06,0.0,0 STARLINK-3511,1 51752U 22016AQ  24219.22904949 -.00000919  00000-0 -39625-4 0  9998,2 51752  53.2178  34.8417 0001578 105.5617 254.5550 15.08840609136075,6917.879,95.438,540.835,538.652,0.0
51752.0,STARLINK-3511,PAYLOAD,2024-08-06 18:12:55,15.08838854,0.0001199,53.218,32.4653,103.0315,257.0811,0.00011711,1.576e-05,0.0,0 STARLINK-3511,1 51752U 22016AQ  24219.75897102  .00001576  00000-0  11711-3 0  9991,2 51752  53.2180  32.4653 0001199 103.0315 257.0811 15.08838854136157,6917.884,95.438,540.578,538.919,0.0
51752.0,STARLINK-3511,PAYLOAD,2024-08-07 11:42:09,15.08837645,0.000141,53.2185,29.1935,107.6744,252.4402,0.00017261,2.46e-05,0.0,0 STARLINK-3511,1 51752U 22016AQ  24220.48761255  .00002460  00000-0  17261-3 0  9991,2 51752  53.2185  29.1935 0001410 107.6744 252.4402 15.08837645137388,6917.888,95.438,540.728,538.777,0.0
51752.0,STARLINK-3511,PAYLOAD,2024-08-07 18:03:41,15.08846848,0.0001448,53.2186,28.006,104.2462,255.8691,0.00017913,2.565e-05,0.0,0 STARLINK-3511,1 51752U 22016AQ  24220.75256851  .00002565  00000-0  17913-3 0  9992,2 51752  53.2186  28.0060 0001448 104.2462 255.8691 15.08846848136300,6917.859,95.437,540.726,538.723,0.0
51752.0,STARLINK-3511,PAYLOAD,2024-08-08 11:32:57,15.08836143,0.0001686,53.2179,24.7392,65.4413,294.6755,0.00014039,1.947e-05,0.0,0 STARLINK-3511,1 51752U 22016AQ  24221.48121778  .00001947  00000-0  14039-3 0  9991,2 51752  53.2179  24.7392 0001686  65.4413 294.6755 15.08836143136412,6917.892,95.438,540.924,538.591,0.0
